QIANFAN-17              
1 60395U 24140S   25250.22747165  .00000123  00000+0  17212-3 0  9993
2 60395  88.9818 309.4192 0017077 121.8818 238.3998 13.50968502 55108
QIANFAN-18              
1 60396U 24140T   25250.20696565  .00000116  00000+0  16016-3 0  9992
2 60396  88.9810 308.9624 0016549 106.7380 253.5589 13.50970310 54490
QIANFAN-19              
1 61552U 24185A   25250.21626956  .00000555  00000+0  28432-3 0  9996
2 61552  88.9758  89.0143 0004943 250.5825 109.4828 14.14146271 56024
QIANFAN-20              
1 61553U 24185B   25250.23074900  .00000457  00000+0  25741-3 0  9996
2 61553  88.9757  89.2391 0003938 306.2552  53.8268 14.08697240 55906
QIANFAN-21              
1 61554U 24185C   25250.23945148  .00000751  00000+0  33108-3 0  9991
2 61554  88.9673  88.2946 0009487 327.9385  32.1228 14.22406238 56254
QIANFAN-22              
1 61555U 24185D   25250.21279772  .00000255  00000+0  20968-3 0  9992
2 61555  88.9743  89.8342 0004897 300.2043  59.8642 13.86251055 55568
QIANFAN-23              
1 61556U 24185E   25250.25672688  .00000716  00000+0  35546-3 0  9990
2 61556  88.9751  88.8640 0005701 268.0863  91.9672 14.16123912 56097
QIANFAN-24              
1 61557U 24185F   25250.25343538  .00000885  00000+0  38225-3 0  9994
2 61557  88.9732  88.4273 0007501 250.0384 110.0000 14.23608997 56293
